{"type": "FeatureCollection", "features": [ {"type": "Feature", "properties": {"norad_id": 66717, "name": "FLOCK 4H-14", "group": "last-30-days", "lat": -31.210466243051922, "lon": -116.26282786606806, "alt_km": 516.7520461096456, "timestamp": "2025-12-22T15:43:47.684702+00:00", "meta": {"OBJECT_NAME": "FLOCK 4H-14", "OBJECT_ID": "2025-276BD", "EPOCH": "2025-12-22T02:08:53.884320", "MEAN_MOTION": 15.18330115, "ECCENTRICITY": 0.000155, "INCLINATION": 97.4419, "RA_OF_ASC_NODE": 67.7227, "ARG_OF_PERICENTER": 135.1406, "MEAN_ANOMALY": 224.9953, "EPHEMERIS_TYPE": 0, "CLASSIFICATION_TYPE": "U", "NORAD_CAT_ID": 66717, "ELEMENT_SET_NO": 999, "REV_AT_EPOCH": 279, "BSTAR": 0.00034264435, "MEAN_MOTION_DOT": 6.968e-05, "MEAN_MOTION_DDOT": 0}, "tle": {"line1": "1 66717U 25276BD  25356.08951255  .00006968  00000+0  34264-3 0  9995", "line2": "2 66717  97.4419  67.7227 0001550 135.1406 224.9953 15.18330115  2795"}}, "geometry": {"type": "Point", "coordinates": [-116.26282786606806, -31.210466243051922]}}, {"type": "Feature", "properties": {"norad_id": 66718, "name": "FLOCK 4H-15", "group": "last-30-days", "lat": 67.85323515041146, "lon": -93.02565131881508, "alt_km": 510.0429762657004, "timestamp": "2025-12-22T15:43:47.684711+00:00", "meta": {"OBJECT_NAME": "FLOCK 4H-15", "OBJECT_ID": "2025-276BE", "EPOCH": "2025-12-22T05:44:41.495424", "MEAN_MOTION": 15.17095905, "ECCENTRICITY": 0.00031255, "INCLINATION": 97.4423, "RA_OF_ASC_NODE": 67.8321, "ARG_OF_PERICENTER": 272.3137, "MEAN_ANOMALY": 87.7738, "EPHEMERIS_TYPE": 0, "CLASSIFICATION_TYPE": "U", "NORAD_CAT_ID": 66718, "ELEMENT_SET_NO": 999, "REV_AT_EPOCH": 356, "BSTAR": 0.00049816347, "MEAN_MOTION_DOT": 9.811e-05, "MEAN_MOTION_DDOT": 0}, "tle": {"line1": "1 66718U 25276BE  25356.23936916  .00009811  00000+0  49816-3 0  9999", "line2": "2 66718  97.4423  67.8321 0003125 272.3137  87.7738 15.17095905  3568"}}, "geometry": {"type": "Point", "coordinates": [-93.02565131881508, 67.85323515041146]}}, {"type": "Feature", "properties": {"norad_id": 66719, "name": "FLOCK 4H-16", "group": "last-30-days", "lat": 59.142236850699945, "lon": -99.11082321449301, "alt_km": 510.20156232027875, "timestamp": "2025-12-22T15:43:47.684747+00:00", "meta": {"OBJECT_NAME": "FLOCK 4H-16", "OBJECT_ID": "2025-276BF", "EPOCH": "2025-12-22T06:00:02.000160", "MEAN_MOTION": 15.17220984, "ECCENTRICITY": 0.0003281, "INCLINATION": 97.4436, "RA_OF_ASC_NODE": 67.8512, "ARG_OF_PERICENTER": 256.7324, "MEAN_ANOMALY": 170.4512, "EPHEMERIS_TYPE": 0, "CLASSIFICATION_TYPE": "U", "NORAD_CAT_ID": 66719, "ELEMENT_SET_NO": 999, "REV_AT_EPOCH": 299, "BSTAR": -0.00078862799, "MEAN_MOTION_DOT": -0.00015703, "MEAN_MOTION_DDOT": 0}, "tle": {"line1": "1 66719U 25276BF  25356.25002315 -.00015703  00000+0 -78863-3 0  9992", "line2": "2 66719  97.4436  67.8512 0003281 256.7324 170.4512 15.17220984  2995"}}, "geometry": {"type": "Point", "coordinates": [-99.11082321449301, 59.142236850699945]}}, {"type": "Feature", "properties": {"norad_id": 66720, "name": "FLOCK 4H-17", "group": "last-30-days", "lat": -9.749046065612408, "lon": -113.00600375117722, "alt_km": 514.0864756046776, "timestamp": "2025-12-22T15:43:47.684757+00:00", "meta": {"OBJECT_NAME": "FLOCK 4H-17", "OBJECT_ID": "2025-276BG", "EPOCH": "2025-12-22T05:24:17.759520", "MEAN_MOTION": 15.18055825, "ECCENTRICITY": 0.00027028, "INCLINATION": 97.4445, "RA_OF_ASC_NODE": 67.8581, "ARG_OF_PERICENTER": 193.2684, "MEAN_ANOMALY": 166.8479, "EPHEMERIS_TYPE": 0, "CLASSIFICATION_TYPE": "U", "NORAD_CAT_ID": 66720, "ELEMENT_SET_NO": 999, "REV_AT_EPOCH": 356, "BSTAR": 0.00057727713, "MEAN_MOTION_DOT": 0.000117, "MEAN_MOTION_DDOT": 0}, "tle": {"line1": "1 66720U 25276BG  25356.22520555  .00011700  00000+0  57728-3 0  9990", "line2": "2 66720  97.4445  67.8581 0002702 193.2684 166.8479 15.18055825  3560"}}, "geometry": {"type": "Point", "coordinates": [-113.00600375117722, -9.749046065612408]}}, {"type": "Feature", "properties": {"norad_id": 66721, "name": "FLOCK 4H-18", "group": "last-30-days", "lat": 65.06131568056551, "lon": -95.45333516779928, "alt_km": 509.8569604151544, "timestamp": "2025-12-22T15:43:47.684769+00:00", "meta": {"OBJECT_NAME": "FLOCK 4H-18", "OBJECT_ID": "2025-276BH", "EPOCH": "2025-12-22T05:43:55.997184", "MEAN_MOTION": 15.1713435, "ECCENTRICITY": 0.00024958, "INCLINATION": 97.4388, "RA_OF_ASC_NODE": 67.8191, "ARG_OF_PERICENTER": 285.8092, "MEAN_ANOMALY": 74.2866, "EPHEMERIS_TYPE": 0, "CLASSIFICATION_TYPE": "U", "NORAD_CAT_ID": 66721, "ELEMENT_SET_NO": 999, "REV_AT_EPOCH": 356, "BSTAR": 0.00052943643, "MEAN_MOTION_DOT": 0.00010443, "MEAN_MOTION_DDOT": 0}, "tle": {"line1": "1 66721U 25276BH  25356.23884256  .00010443  00000+0  52944-3 0  9991", "line2": "2 66721  97.4388  67.8191 0002495 285.8092  74.2866 15.17134350  3566"}}, "geometry": {"type": "Point", "coordinates": [-95.45333516779928, 65.06131568056551]}}, {"type": "Feature", "properties": {"norad_id": 66722, "name": "FLOCK 4H-19", "group": "last-30-days", "lat": -24.964499636533017, "lon": -115.22090386519595, "alt_km": 515.5921192460528, "timestamp": "2025-12-22T15:43:47.684779+00:00", "meta": {"OBJECT_NAME": "FLOCK 4H-19", "OBJECT_ID": "2025-276BJ", "EPOCH": "2025-12-22T05:20:19.593600", "MEAN_MOTION": 15.1822507, "ECCENTRICITY": 0.00028246, "INCLINATION": 97.4395, "RA_OF_ASC_NODE": 67.841, "ARG_OF_PERICENTER": 156.5833, "MEAN_ANOMALY": 203.553, "EPHEMERIS_TYPE": 0, "CLASSIFICATION_TYPE": "U", "NORAD_CAT_ID": 66722, "ELEMENT_SET_NO": 999, "REV_AT_EPOCH": 285, "BSTAR": 0.00068185057, "MEAN_MOTION_DOT": 0.00013903, "MEAN_MOTION_DDOT": 0}, "tle": {"line1": "1 66722U 25276BJ  25356.22244900  .00013903  00000+0  68185-3 0  9995", "line2": "2 66722  97.4395  67.8410 0002824 156.5833 203.5530 15.18225070  2859"}}, "geometry": {"type": "Point", "coordinates": [-115.22090386519595, -24.964499636533017]}}, {"type": "Feature", "properties": {"norad_id": 66723, "name": "FLOCK 4H-20", "group": "last-30-days", "lat": -28.247464458562096, "lon": -115.7457580849303, "alt_km": 515.3473511602551, "timestamp": "2025-12-22T15:43:47.684789+00:00", "meta": {"OBJECT_NAME": "FLOCK 4H-20", "OBJECT_ID": "2025-276BK", "EPOCH": "2025-12-22T02:09:39.891456", "MEAN_MOTION": 15.18286405, "ECCENTRICITY": 0.00027791, "INCLINATION": 97.4422, "RA_OF_ASC_NODE": 67.7252, "ARG_OF_PERICENTER": 174.0042, "MEAN_ANOMALY": 186.1225, "EPHEMERIS_TYPE": 0, "CLASSIFICATION_TYPE": "U", "NORAD_CAT_ID": 66723, "ELEMENT_SET_NO": 999, "REV_AT_EPOCH": 279, "BSTAR": 0.00059091717, "MEAN_MOTION_DOT": 0.00012058, "MEAN_MOTION_DDOT": 0}, "tle": {"line1": "1 66723U 25276BK  25356.09004504  .00012058  00000+0  59092-3 0  9992", "line2": "2 66723  97.4422  67.7252 0002779 174.0042 186.1225 15.18286405  2799"}}, "geometry": {"type": "Point", "coordinates": [-115.7457580849303, -28.247464458562096]}}, {"type": "Feature", "properties": {"norad_id": 66724, "name": "FLOCK 4H-21", "group": "last-30-days", "lat": -31.1254449343986, "lon": -116.2558341306201, "alt_km": 515.6475161905646, "timestamp": "2025-12-22T15:43:47.684801+00:00", "meta": {"OBJECT_NAME": "FLOCK 4H-21", "OBJECT_ID": "2025-276BL", "EPOCH": "2025-12-22T02:08:55.741920", "MEAN_MOTION": 15.18345613, "ECCENTRICITY": 0.00024381, "INCLINATION": 97.439, "RA_OF_ASC_NODE": 67.7129, "ARG_OF_PERICENTER": 171.3161, "MEAN_ANOMALY": 188.8116, "EPHEMERIS_TYPE": 0, "CLASSIFICATION_TYPE": "U", "NORAD_CAT_ID": 66724, "ELEMENT_SET_NO": 999, "REV_AT_EPOCH": 279, "BSTAR": 0.00062332978, "MEAN_MOTION_DOT": 0.00012746, "MEAN_MOTION_DDOT": 0}, "tle": {"line1": "1 66724U 25276BL  25356.08953405  .00012746  00000+0  62333-3 0  9991", "line2": "2 66724  97.4390  67.7129 0002438 171.3161 188.8116 15.18345613  2796"}}, "geometry": {"type": "Point", "coordinates": [-116.2558341306201, -31.1254449343986]}}, {"type": "Feature", "properties": {"norad_id": 66725, "name": "FLOCK 4H-22", "group": "last-30-days", "lat": 40.545205181288736, "lon": -105.34943949569595, "alt_km": 511.3256900330289, "timestamp": "2025-12-22T15:43:47.684811+00:00", "meta": {"OBJECT_NAME": "FLOCK 4H-22", "OBJECT_ID": "2025-276BM", "EPOCH": "2025-12-22T05:37:26.648544", "MEAN_MOTION": 15.17479761, "ECCENTRICITY": 0.00015962, "INCLINATION": 97.438, "RA_OF_ASC_NODE": 67.8204, "ARG_OF_PERICENTER": 296.556, "MEAN_ANOMALY": 63.551, "EPHEMERIS_TYPE": 0, "CLASSIFICATION_TYPE": "U", "NORAD_CAT_ID": 66725, "ELEMENT_SET_NO": 999, "REV_AT_EPOCH": 356, "BSTAR": 0.00032425768, "MEAN_MOTION_DOT": 6.43e-05, "MEAN_MOTION_DDOT": 0}, "tle": {"line1": "1 66725U 25276BM  25356.23433621  .00006430  00000+0  32426-3 0  9995", "line2": "2 66725  97.4380  67.8204 0001596 296.5560  63.5510 15.17479761  3562"}}, "geometry": {"type": "Point", "coordinates": [-105.34943949569595, 40.545205181288736]}}, {"type": "Feature", "properties": {"norad_id": 66726, "name": "FLOCK 4H-23", "group": "last-30-days", "lat": 58.29069780574393, "lon": -99.53115181123559, "alt_km": 507.2850026760334, "timestamp": "2025-12-22T15:43:47.684823+00:00", "meta": {"OBJECT_NAME": "FLOCK 4H-23", "OBJECT_ID": "2025-276BN", "EPOCH": "2025-12-22T05:42:17.064864", "MEAN_MOTION": 15.17601267, "ECCENTRICITY": 0.00036296, "INCLINATION": 97.4458, "RA_OF_ASC_NODE": 67.8375, "ARG_OF_PERICENTER": 217.6605, "MEAN_ANOMALY": 142.4375, "EPHEMERIS_TYPE": 0, "CLASSIFICATION_TYPE": "U", "NORAD_CAT_ID": 66726, "ELEMENT_SET_NO": 999, "REV_AT_EPOCH": 356, "BSTAR": 0.0093744482, "MEAN_MOTION_DOT": 0.001933, "MEAN_MOTION_DDOT": 0}, "tle": {"line1": "1 66726U 25276BN  25356.23769751  .00193300  00000+0  93744-2 0  9994", "line2": "2 66726  97.4458  67.8375 0003629 217.6605 142.4375 15.17601267  3565"}}, "geometry": {"type": "Point", "coordinates": [-99.53115181123559, 58.29069780574393]}}]}